NORAD_CAT_ID,OBJECT_NAME,OBJECT_TYPE,EPOCH,MEAN_MOTION,ECCENTRICITY,INCLINATION,RA_OF_ASC_NODE,ARG_OF_PERICENTER,MEAN_ANOMALY,BSTAR,MEAN_MOTION_DOT,MEAN_MOTION_DDOT,TLE_LINE0,TLE_LINE1,TLE_LINE2,SEMIMAJOR_AXIS,PERIOD,APOGEE,PERIGEE,DECAYED
52694.0,STARLINK-4072,PAYLOAD,2024-01-10 14:23:53,15.08847261,0.0001777,53.2181,86.4831,68.956,291.1623,5.7506e-05,6.27e-06,0.0,0 STARLINK-4072,1 52694U 22053AQ  24010.59992867  .00000627  00000-0  57506-4 0  9992,2 52694  53.2181  86.4831 0001777  68.9560 291.1623 15.08847261 91628,6917.858,95.437,540.952,538.494,0.0
52694.0,STARLINK-4072,PAYLOAD,2024-01-11 14:14:40,15.08848749,0.0001924,53.2184,82.0215,90.1211,270.0001,4.1041e-05,3.65e-06,0.0,0 STARLINK-4072,1 52694U 22053AQ  24011.59352642  .00000365  00000-0  41041-4 0  9990,2 52694  53.2184  82.0215 0001924  90.1211 270.0001 15.08848749 92172,6917.854,95.437,541.05,538.388,0.0
52694.0,STARLINK-4072,PAYLOAD,2024-01-12 04:33:09,15.08835507,0.0001277,53.2175,79.3437,95.4432,264.6706,-4.9629e-05,-1.078e-05,0.0,0 STARLINK-4072,1 52694U 22053AQ  24012.18969752 -.00001078  00000-0 -49629-4 0  9996,2 52694  53.2175  79.3437 0001277  95.4432 264.6706 15.08835507 91865,6917.894,95.438,540.643,538.876,0.0
52694.0,STARLINK-4072,PAYLOAD,2024-01-12 10:54:42,15.08840826,0.0001631,53.2177,78.155,96.4006,263.7172,-3.1463e-06,-3.38e-06,0.0,0 STARLINK-4072,1 52694U 22053AQ  24012.45465320 -.00000338  00000-0 -31463-5 0  9994,2 52694  53.2177  78.1550 0001631  96.4006 263.7172 15.08840826 92309,6917.878,95.438,540.871,538.615,0.0
52694.0,STARLINK-4072,PAYLOAD,2024-01-13 10:45:29,15.08842656,0.0001586,53.2185,73.6966,97.9378,262.1794,-3.5246e-06,-3.44e-06,0.0,0 STARLINK-4072,1 52694U 22053AQ  24013.44825379 -.00000344  00000-0 -35246-5 0  9998,2 52694  53.2185  73.6966 0001586  97.9378 262.1794 15.08842656 92458,6917.872,95.437,540.834,538.64,0.0
52694.0,STARLINK-4072,PAYLOAD,2024-01-14 04:14:43,15.08837039,0.0001794,53.2186,70.4256,102.0067,258.1126,2.4371e-05,1e-06,0.0,0 STARLINK-4072,1 52694U 22053AQ  24014.17689813  .00000100  00000-0  24371-4 0  9994,2 52694  53.2186  70.4256 0001794 102.0067 258.1126 15.08837039 92161,6917.889,95.438,540.996,538.513,0.0
52694.0,STARLINK-4072,PAYLOAD,2024-01-14 10:36:16,15.08841332,0.0001783,53.2188,69.237,105.4163,254.7026,9.2367e-05,1.182e-05,0.0,0 STARLINK-4072,1 52694U 22053AQ  24014.44185334  .00001182  00000-0  92367-4 0  9994,2 52694  53.2188  69.2370 0001783 105.4163 254.7026 15.08841332 92609,6917.876,95.437,540.975,538.508,0.0
52694.0,STARLINK-4072,PAYLOAD,2024-01-15 08:51:40,15.08838349,0.0001752,53.2187,65.0723,106.8403,253.2781,3.7589e-05,3.1e-06,0.0,0 STARLINK-4072,1 52694U 22053AQ  24015.36921834  .00000310  00000-0  37589-4 0  9996,2 52694  53.2187  65.0723 0001752 106.8403 253.2781 15.08838349 92349,6917.885,95.438,540.962,538.538,0.0
52694.0,STARLINK-4072,PAYLOAD,2024-01-16 10:17:51,15.08837147,0.0001619,53.2181,60.3126,95.8726,264.2451,-2.6938e-05,-7.17e-06,0.0,0 STARLINK-4072,1 52694U 22053AQ  24016.42906399 -.00000717  00000-0 -26938-4 0  9992,2 52694  53.2181  60.3126 0001619  95.8726 264.2451 15.08837147 92504,6917.889,95.438,540.874,538.634,0.0
52694.0,STARLINK-4072,PAYLOAD,2024-01-17 10:08:38,15.08803808,0.0001891,53.2187,55.8529,80.4524,279.6682,0.00055642,8.57e-05,0.0,0 STARLINK-4072,1 52694U 22053AQ  24017.42266791  .00008570  00000-0  55642-3 0  9994,2 52694  53.2187  55.8529 0001891  80.4524 279.6682 15.08803808 92653,6917.991,95.44,541.164,538.548,0.0
52694.0,STARLINK-4072,PAYLOAD,2024-01-18 02:02:29,15.08822411,0.0001952,53.2187,52.8839,70.7285,289.3918,0.00027912,4.155e-05,0.0,0 STARLINK-4072,1 52694U 22053AQ  24018.08506653  .00004155  00000-0  27912-3 0  9995,2 52694  53.2187  52.8839 0001952  70.7285 289.3918 15.08822411 92750,6917.934,95.439,541.15,538.449,0.0
52694.0,STARLINK-4072,PAYLOAD,2024-01-18 08:24:02,15.08834587,0.0001988,53.2192,51.6946,65.4231,294.6968,0.00013847,1.916e-05,0.0,0 STARLINK-4072,1 52694U 22053AQ  24018.35002651  .00001916  00000-0  13847-3 0  9998,2 52694  53.2192  51.6946 0001988  65.4231 294.6968 15.08834587 93193,6917.897,95.438,541.137,538.387,0.0
52694.0,STARLINK-4072,PAYLOAD,2024-01-19 11:25:35,15.08847118,0.0001731,53.2189,46.6302,94.0434,266.0756,-2.9137e-06,-3.34e-06,0.0,0 STARLINK-4072,1 52694U 22053AQ  24019.47610076 -.00000334  00000-0 -29137-5 0  9994,2 52694  53.2189  46.6302 0001731  94.0434 266.0756 15.08847118 92964,6917.859,95.437,540.921,538.526,0.0
52694.0,STARLINK-4072,PAYLOAD,2024-01-20 01:44:03,15.0884129,0.00018,53.2187,43.9514,125.3307,234.7854,-0.00011425,-2.106e-05,0.0,0 STARLINK-4072,1 52694U 22053AQ  24020.07226688 -.00002106  00000-0 -11425-3 0  9992,2 52694  53.2187  43.9514 0001800 125.3307 234.7854 15.08841290 93058,6917.876,95.437,540.987,538.496,0.0
52694.0,STARLINK-4072,PAYLOAD,2024-01-20 08:05:36,15.08838506,0.000182,53.2189,42.7723,98.5592,261.5607,2.2173e-05,6.5e-07,0.0,0 STARLINK-4072,1 52694U 22053AQ  24020.33722680  .00000065  00000-0  22173-4 0  9997,2 52694  53.2189  42.7723 0001820  98.5592 261.5607 15.08838506 93496,6917.885,95.438,541.009,538.491,0.0
52694.0,STARLINK-4072,PAYLOAD,2024-01-21 06:21:00,15.08840468,0.0001801,53.2189,38.6085,111.2777,248.8408,-8.6555e-06,-4.26e-06,0.0,0 STARLINK-4072,1 52694U 22053AQ  24021.26458773 -.00000426  00000-0 -86555-5 0  9997,2 52694  53.2189  38.6085 0001801 111.2777 248.8408 15.08840468 93631,6917.879,95.438,540.99,538.498,0.0
52694.0,STARLINK-4072,PAYLOAD,2024-01-21 07:56:23,15.08844558,0.0001695,53.2188,38.311,104.154,255.9641,-4.1307e-05,-9.46e-06,0.0,0 STARLINK-4072,1 52694U 22053AQ  24021.33082662 -.00000946  00000-0 -41307-4 0  9997,2 52694  53.2188  38.3110 0001695 104.1540 255.9641 15.08844558 93245,6917.866,95.437,540.904,538.559,0.0
52694.0,STARLINK-4072,PAYLOAD,2024-01-22 01:25:38,15.0883544,0.000177,53.2192,35.0383,107.8036,252.3149,1.2633e-06,-2.68e-06,0.0,0 STARLINK-4072,1 52694U 22053AQ  24022.05947241 -.00000268  00000-0  12633-5 0  9997,2 52694  53.2192  35.0383 0001770 107.8036 252.3149 15.08835440 93356,6917.894,95.438,540.984,538.535,0.0
52694.0,STARLINK-4072,PAYLOAD,2024-01-22 06:11:45,15.08867894,0.0001252,53.2189,34.1451,63.6794,296.4327,0.00025596,3.791e-05,0.0,0 STARLINK-4072,1 52694U 22053AQ  24022.25816582  .00003791  00000-0  25596-3 0  9995,2 52694  53.2189  34.1451 0001252  63.6794 296.4327 15.08867894 93381,6917.795,95.436,540.526,538.794,0.0
52694.0,STARLINK-4072,PAYLOAD,2024-01-23 06:02:34,15.08843286,0.0001636,53.2193,29.6839,111.4331,248.6836,8.4722e-05,1.061e-05,0.0,0 STARLINK-4072,1 52694U 22053AQ  24023.25178817  .00001061  00000-0  84722-4 0  9993,2 52694  53.2193  29.6839 0001636 111.4331 248.6836 15.08843286 93530,6917.87,95.437,540.867,538.604,0.0
52694.0,STARLINK-4072,PAYLOAD,2024-01-24 07:28:44,15.0885965,0.000151,53.2193,24.9273,92.6412,267.4753,-0.00013574,-2.449e-05,0.0,0 STARLINK-4072,1 52694U 22053AQ  24024.31162639 -.00002449  00000-0 -13574-3 0  9995,2 52694  53.2193  24.9273 0001510  92.6412 267.4753 15.08859650 93697,6917.82,95.436,540.73,538.641,0.0
52694.0,STARLINK-4072,PAYLOAD,2024-01-25 04:08:45,15.08842873,0.0001542,53.2183,21.0694,79.4627,280.6539,5.5471e-05,5.95e-06,0.0,0 STARLINK-4072,1 52694U 22053AQ  24025.17275346  .00000595  00000-0  55471-4 0  9991,2 52694  53.2183  21.0694 0001542  79.4627 280.6539 15.08842873 93820,6917.872,95.437,540.803,538.67,0.0
52694.0,STARLINK-4072,PAYLOAD,2024-01-25 07:19:31,15.08845531,0.0001549,53.2181,20.4763,83.4557,276.6611,8.0185e-05,9.89e-06,0.0,0 STARLINK-4072,1 52694U 22053AQ  24025.30523113  .00000989  00000-0  80185-4 0  9991,2 52694  53.2181  20.4763 0001549  83.4557 276.6611 15.08845531 94249,6917.863,95.437,540.8,538.657,0.0
52694.0,STARLINK-4072,PAYLOAD,2024-01-26 05:34:56,15.08840996,0.0001488,53.2182,16.3141,92.7183,267.3979,8.2434e-06,-1.57e-06,0.0,0 STARLINK-4072,1 52694U 22053AQ  24026.23259541 -.00000157  00000-0  82434-5 0  9993,2 52694  53.2182  16.3141 0001488  92.7183 267.3979 15.08840996 93988,6917.877,95.437,540.772,538.713,0.0
52694.0,STARLINK-4072,PAYLOAD,2024-01-27 08:36:29,15.08844152,0.0001554,53.2201,11.2451,101.117,258.9997,7.0497e-05,8.34e-06,0.0,0 STARLINK-4072,1 52694U 22053AQ  24027.35866905  .00000834  00000-0  70497-4 0  9991,2 52694  53.2201  11.2451 0001554 101.1170 258.9997 15.08844152 94157,6917.868,95.437,540.808,538.658,0.0
52694.0,STARLINK-4072,PAYLOAD,2024-01-28 05:16:30,15.08838032,0.0001723,53.2201,7.3769,104.8979,255.2204,-1.645e-05,-5.5e-06,0.0,0 STARLINK-4072,1 52694U 22053AQ  24028.21979563 -.00000550  00000-0 -16450-4 0  9998,2 52694  53.2201   7.3769 0001723 104.8979 255.2204 15.08838032 94285,6917.886,95.438,540.943,538.559,0.0
52694.0,STARLINK-4072,PAYLOAD,2024-01-28 08:27:16,15.08837242,0.0001826,53.2205,6.7838,108.8684,251.2506,-3.0457e-05,-7.73e-06,0.0,0 STARLINK-4072,1 52694U 22053AQ  24028.35227690 -.00000773  00000-0 -30457-4 0  9990,2 52694  53.2205   6.7838 0001826 108.8684 251.2506 15.08837242 94700,6917.889,95.438,541.017,538.491,0.0
52694.0,STARLINK-4072,PAYLOAD,2024-01-28 22:45:44,15.08834335,0.0001848,53.2204,4.1077,122.018,238.0992,2.9348e-05,1.79e-06,0.0,0 STARLINK-4072,1 52694U 22053AQ  24028.94843657  .00000179  00000-0  29348-4 0  9997,2 52694  53.2204   4.1077 0001848 122.0180 238.0992 15.08834335 94790,6917.898,95.438,541.041,538.484,0.0
52694.0,STARLINK-4072,PAYLOAD,2024-01-29 05:07:17,15.08843393,0.0001662,53.22,2.9194,110.4502,249.6669,8.1819e-06,-1.58e-06,0.0,0 STARLINK-4072,1 52694U 22053AQ  24029.21339292 -.00000158  00000-0  81819-5 0  9993,2 52694  53.2200   2.9194 0001662 110.4502 249.6669 15.08843393 94439,6917.87,95.437,540.885,538.585,0.0
52694.0,STARLINK-4072,PAYLOAD,2024-01-29 22:36:32,15.08838524,0.0001733,53.2197,359.6508,113.6531,246.4643,1.7586e-05,-8e-08,0.0,0 STARLINK-4072,1 52694U 22053AQ  24029.94203715 -.00000008  00000-0  17586-4 0  9996,2 52694  53.2197 359.6508 0001733 113.6531 246.4643 15.08838524 94944,6917.885,95.438,540.949,538.551,0.0
